SL-16 R/B               
1 26070U 00006B   21271.42015106 -.00000223  00000-0 -89881-4 0  9990
2 26070  71.0000 269.8671 0014883 138.6283 221.5970 14.15469367118832
MTI                     
1 26102U 00014A   21271.48954936  .00023796  00000-0  25426-3 0  9996
2 26102  97.4567 183.6500 0003672 307.4957  52.6002 15.63906018197435
TITAN 4B R/B            
1 26474U 00047B   21271.30355489  .00000604  00000-0  62802-4 0  9996
2 26474  67.9931 227.6515 0052729  38.9469 321.5452 14.96230289149226
ENVISAT                 
1 27386U 02009A   21271.44702969  .00000057  00000-0  32337-4 0  9995
2 27386  98.1575 260.2832 0001203  86.4766  86.9247 14.38043930 25805
IDEFIX & ARIANE 42P R/B 
1 27422U 02021B   21271.43272058  .00000048  00000-0  35312-4 0  9996
2 27422  98.4123 220.8154 0011162 292.3952  67.6047 14.29332272 12021
AQUA                    
1 27424U 02022A   21271.53733436  .00000202  00000-0  55010-4 0  9991
2 27424  98.2154 211.4110 0001346  40.0901  71.3639 14.57108362 32043
CZ-4B R/B               
1 27432U 02024C   21271.30423938 -.00000018  00000-0  14856-4 0  9999
2 27432  99.0838 287.4166 0049532 297.1775  72.8149 14.14114442999770
MIDORI II (ADEOS-II)    
1 27597U 02056A   21271.55020652  .00000088  00000-0  53279-4 0  9997
2 27597  98.5719 214.8360 0002107  71.9221 288.2189 14.27518092978592
H-2A R/B                
1 27601U 02056E   21271.48045318  .00000111  00000-0  54917-4 0  9998
2 27601  98.1869 287.9721 0071349 323.5537 159.0424 14.32020451981675
CZ-4B R/B               
1 28059U 03049C   21271.36780269  .00000090  00000-0  33355-4 0  9996
2 28059  98.4949 199.4259 0050624 147.0631 213.3735 14.52670438950768
CZ-2C R/B               
1 28222U 04012C   21271.48518084  .00001330  00000-0  81775-4 0  9993
2 28222  97.7395 243.3941 0045162 227.8091 247.3881 15.11074544956657
SL-16 R/B               
1 28353U 04021B   21271.51320567 -.00000098  00000-0 -26575-4 0  9998
2 28353  71.0035  37.6591 0006484 322.5502  37.5168 14.14253079893311
CZ-4B R/B               
1 28415U 04035C   21271.07440556  .00000880  00000-0  61027-4 0  9992
2 28415  97.5552 311.8308 0050761 195.1781 164.7927 15.07222309934069
CZ-2C R/B               
1 28480U 04046B   21271.45376306  .00000037  00000-0  29605-4 0  9999
2 28480  98.0525 275.1558 0140577 278.7128 200.4547 14.25765002877102
ARIANE 5 R/B            
1 28499U 04049H   21271.33319334  .00000258  00000-0  39062-4 0  9990
2 28499  98.0777  21.1569 0091539 200.5133 226.1012 14.80158042905301
CZ-2D R/B               
1 28738U 05024B   21271.45170939  .00001292  00000-0  77583-4 0  9998
2 28738  97.3601 283.8366 0012090  13.8906 346.2656 15.12566484892138
SUZAKU (ASTRO-EII)      
1 28773U 05025A   21271.04153110  .00002705  00000-0  12280-3 0  9997
2 28773  31.3806 213.8300 0004764 237.9728 122.0457 15.18715670895077
ALOS (DAICHI)           
1 28931U 06002A   21271.49934453  .00000195  00000-0  46867-4 0  9995
2 28931  97.8979 241.7866 0002332  60.5105 299.6324 14.62886085836128
H-2A R/B                
1 28932U 06002B   21271.34878243  .00000980  00000-0  94807-4 0  9993
2 28932  98.3243 294.2291 0087019 230.1901 139.7486 14.92685666850931
AKARI (ASTRO-F)         
1 28939U 06005A   21271.07520280  .00007751  00000-0  18480-3 0  9993
2 28939  98.2364 306.8810 0086264 123.7826 237.1671 15.38044544852679
RESURS-DK 1             
1 29228U 06021A   21271.45735815  .00000405  00000-0  37542-4 0  9997
2 29228  69.9346  76.4059 0001729 128.6651 231.4665 15.02756403843017
GENESIS 1               
1 29252U 06029A   21271.53865140  .00002103  00000-0  10673-3 0  9998
2 29252  64.5224 209.7853 0053748 300.6431  58.9400 15.18893493839178
CZ-4B R/B               
1 29507U 06046C   21271.34989447  .00000936  00000-0  76108-4 0  9994
2 29507  97.7660 297.1052 0049469  30.2652 330.1413 15.01145677815541
CZ-2C R/B               
1 31114U 07010B   21271.46296795  .00000055  00000-0  44573-4 0  9996
2 31114  98.2320  97.9347 0059382 343.4202  16.5033 14.19376454749394
COSMO-SKYMED 1          
1 31598U 07023A   21271.46095879 -.00000070  00000-0 -22747-5 0  9995
2 31598  97.8929  93.9093 0001296  92.9756 267.1626 14.82150331774153
GENESIS 2               
1 31789U 07028A   21271.36851227  .00001482  00000-0  82522-4 0  9990
2 31789  64.4920 252.9388 0015718  10.0621 350.0813 15.17934681786101
COSMOS 2428             
1 31792U 07029A   21271.52899967  .00000335  00000-0  20783-3 0  9992
2 31792  70.9169   9.4500 0005571  85.4600 274.7157 14.12362415734865
SL-16 R/B               
1 31793U 07029B   21271.52078024 -.00000126  00000-0 -40540-4 0  9990
2 31793  70.9788 343.1132 0002965 276.8364 176.1148 14.14453754735820
KORONAS-FOTON           
1 33504U 09003A   21271.31989507  .00001399  00000-0  70597-4 0  9996
2 33504  82.4393 117.1347 0020408  98.9172 261.4372 15.16127050698231
H-2A R/B                
1 38341U 12025E   21271.46979545  .00000390  00000-0  52881-4 0  9991
2 38341  98.5270 104.0168 0055481 167.4916 192.7688 14.84280530506781
CUSAT 2 & FALCON 9 R/B  
1 39271U 13055G   21271.07612855  .00011742  00000-0  27214-3 0  9997
2 39271  80.9618 121.7480 0562377 197.6985 160.3908 14.54370167418541
CZ-2C R/B               
1 39364U 13059B   21271.40438487  .00003404  00000-0  12223-3 0  9998
2 39364  97.2016 328.6648 0046059 184.5142 175.5689 15.28332308440158
SL-4 R/B                
1 39679U 14021B   21271.50484383  .00001977  00000-0  11101-3 0  9991
2 39679  51.6147  94.1878 0170015 128.5069 233.1286 15.07183559409598
ALOS-2                  
1 39766U 14029A   21270.58360894 -.00000051  00000-0 -51110-8 0  9996
2 39766  97.9223   6.4843 0001492  90.4458 269.6927 14.79471362396762
CZ-2C R/B               
1 40306U 14071B   21271.41852456  .00011243  00000-0  20390-3 0  9992
2 40306  97.3813 231.2259 0011194 254.2750 105.7267 15.49709836386198
SL-27 R/B               
1 40354U 14084B   21271.36730022  .00002724  00000-0  64965-4 0  9998
2 40354  74.7375 139.2607 0035050  92.4455 268.0771 15.41416741380197
YAOGAN 29               
1 41038U 15069A   21271.54254159  .00000058  00000-0  14501-4 0  9993
2 41038  98.0446 265.7888 0001581 114.6047 245.5326 14.80526193315534
ASTRO-H (HITOMI)        
1 41337U 16012A   21271.32148159  .00000613  00000-0  42619-4 0  9990
2 41337  31.0050 282.8204 0012262  15.0062 345.0935 14.98901911307756
HXMT (HUIYAN)           
1 42758U 17034A   21271.56678414  .00000898  00000-0  68824-4 0  9992
2 42758  43.0187 347.0844 0007296  78.3653  61.0457 15.09328360236592
CZ-2C R/B               
1 43521U 18054D   21271.44790554  .00001309  00000-0  71374-4 0  9993
2 43521  35.1533 174.3981 0082376 287.3500  71.8218 15.11691041179992
AEOLUS                  
1 43600U 18066A   21271.47197381  .00046983  00000-0  18184-3 0  9992
2 43600  96.7154 276.6951 0004270 105.0551 255.1195 15.87102741179587
SAOCOM 1A               
1 43641U 18076A   21271.46932692  .00000054  00000-0  13316-4 0  9991
2 43641  97.8883  96.9232 0001361  83.5320 276.6058 14.82157776160926
SAOCOM 1B               
1 46265U 20059A   21271.50046555 -.00001083  00000-0 -12957-3 0  9993
2 46265  97.8894  96.0172 0001401  94.1384 266.0009 14.82142031 58327
2020-063G               
1 46395U 20063G   21271.33874346  .00071142  13147-4  18162-3 0  9995
2 46395  50.1994 135.4608 0007647 206.9396 153.1196 15.95432609 61662
SL-4 R/B                
1 47547U 21008B   21271.56967031  .00122260  83084-5  39096-3 0  9999
2 47547  67.1352  85.0317 0343499 228.8717 128.2326 15.36194370 36129
TIANHE                  
1 48274U 21035A   21271.46953316  .00004911  00000-0  59950-4 0  9993
2 48274  41.4714  13.0225 0001686 341.2278  72.0882 15.61342158 23850
